ONEWEB-0228             
1 48780U 21045P   23300.88364137  .00000093  00000+0  21211-3 0  9998
2 48780  87.8954  90.9663 0001569  87.4876 272.6434 13.15548487117670
